{
  "type": "FeatureCollection",
  "features": [
    {
      "type": "Feature",
      "properties": {
        "osm_relation_id": 6085197,
        "name": "Hanshin Expressway Route 1 Loop Route",
        "name_ja": "阪神高速1号環状線",
        "ref": "1",
        "direction": "clockwise",
        "closed": true
      },
      "geometry": {
        "type": "LineString",
        "coordinates": [
          [
            135.4973778,
            34.6683951
          ],
          [
            135.4972682,
            34.6685593
          ],
          [
            135.4971954,
            34.6686687
          ],
          [
            135.4971489,
            34.6687641
          ],
          [
            135.4971048,
            34.6688747
          ],
          [
            135.4970741,
            34.6689896
          ],
          [
            135.4970551,
            34.6690948
          ],
          [
            135.4970441,
            34.6692441
          ],
          [
            135.4970499,
            34.6694356
          ],
          [
            135.4971717,
            34.6707566
          ],
          [
            135.4972212,
            34.6711674
          ],
          [
            135.4974716,
            34.6734892
          ],
          [
            135.4975813,
            34.6744971
          ],
          [
            135.4976437,
            34.675131
          ],
          [
            135.4976899,
            34.675751
          ],
          [
            135.4977254,
            34.6763154
          ],
          [
            135.4978157,
            34.6780344
          ],
          [
            135.4978601,
            34.6787672
          ],
          [
            135.4979142,
            34.6798916
          ],
          [
            135.4979701,
            34.6809359
          ],
          [
            135.4980151,
            34.6819065
          ],
          [
            135.498023,
            34.6822987
          ],
          [
            135.4980244,
            34.6826731
          ],
          [
            135.4980159,
            34.6832548
          ],
          [
            135.4980093,
            34.6838607
          ],
          [
            135.4979914,
            34.6851014
          ],
          [
            135.4979849,
            34.6852594
          ],
          [
            135.4979738,
            34.6862162
          ],
          [
            135.4979572,
            34.6868153
          ],
          [
            135.4977894,
            34.6887165
          ],
          [
            135.4976046,
            34.6904403
          ],
          [
            135.4975482,
            34.691364
          ],
          [
            135.4975436,
            34.6914531
          ],
          [
            135.4975358,
            34.6916016
          ],
          [
            135.4975342,
            34.6917336
          ],
          [
            135.4975406,
            34.69186
          ],
          [
            135.4975561,
            34.6920048
          ],
          [
            135.4975791,
            34.6921445
          ],
          [
            135.4976056,
            34.692275
          ],
          [
            135.497683,
            34.6925875
          ],
          [
            135.4977321,
            34.6927893
          ],
          [
            135.4977598,
            34.6929315
          ],
          [
            135.4977745,
            34.6930688
          ],
          [
            135.4977777,
            34.6932004
          ],
          [
            135.4977798,
            34.6932193
          ],
          [
            135.497772,
            34.6933475
          ],
          [
            135.4977511,
            34.6934942
          ],
          [
            135.497676,
            34.6939037
          ],
          [
            135.4976581,
            34.6940234
          ],
          [
            135.4976512,
            34.6941396
          ],
          [
            135.4976575,
            34.6942333
          ],
          [
            135.4976758,
            34.6943214
          ],
          [
            135.4977073,
            34.6944011
          ],
          [
            135.4977507,
            34.694481
          ],
          [
            135.4978071,
            34.694562
          ],
          [
            135.4978713,
            34.6946341
          ],
          [
            135.497948,
            34.6947001
          ],
          [
            135.4980358,
            34.6947602
          ],
          [
            135.4981425,
            34.6948143
          ],
          [
            135.498259,
            34.6948564
          ],
          [
            135.4983774,
            34.6948848
          ],
          [
            135.4984972,
            34.6949021
          ],
          [
            135.4988031,
            34.6949387
          ],
          [
            135.4991145,
            34.6949687
          ],
          [
            135.5000037,
            34.6950305
          ],
          [
            135.5005024,
            34.6950289
          ],
          [
            135.50094,
            34.6950213
          ],
          [
            135.5010658,
            34.6950179
          ],
          [
            135.5015534,
            34.6949948
          ],
          [
            135.5020144,
            34.6949651
          ],
          [
            135.5025258,
            34.6949244
          ],
          [
            135.5029908,
            34.6948797
          ],
          [
            135.5032666,
            34.6948527
          ],
          [
            135.5036413,
            34.6948067
          ],
          [
            135.5039184,
            34.6947627
          ],
          [
            135.5041581,
            34.6947077
          ],
          [
            135.5044045,
            34.6946325
          ],
          [
            135.5046915,
            34.6945239
          ],
          [
            135.5049399,
            34.6943939
          ],
          [
            135.506254,
            34.6938487
          ],
          [
            135.5067269,
            34.6936373
          ],
          [
            135.5073093,
            34.693406
          ],
          [
            135.5085037,
            34.6929609
          ],
          [
            135.5086239,
            34.692915
          ],
          [
            135.5087366,
            34.6928655
          ],
          [
            135.5088258,
            34.6928213
          ],
          [
            135.508899,
            34.6927801
          ],
          [
            135.5090083,
            34.6927105
          ],
          [
            135.5091036,
            34.6926382
          ],
          [
            135.5091718,
            34.6925738
          ],
          [
            135.509225,
            34.6925136
          ],
          [
            135.509269,
            34.6924569
          ],
          [
            135.5093093,
            34.6923929
          ],
          [
            135.5093519,
            34.6923163
          ],
          [
            135.5093803,
            34.6922507
          ],
          [
            135.5094114,
            34.6921787
          ],
          [
            135.5094475,
            34.6920666
          ],
          [
            135.5095312,
            34.6917616
          ],
          [
            135.5096064,
            34.6914686
          ],
          [
            135.5096412,
            34.691311
          ],
          [
            135.5096815,
            34.6911107
          ],
          [
            135.5097254,
            34.6909622
          ],
          [
            135.5097501,
            34.6906333
          ],
          [
            135.5097612,
            34.6903144
          ],
          [
            135.509823,
            34.6876066
          ],
          [
            135.5098644,
            34.6861525
          ],
          [
            135.5098707,
            34.685769
          ],
          [
            135.509913,
            34.6840077
          ],
          [
            135.5099223,
            34.6835377
          ],
          [
            135.5099266,
            34.6833555
          ],
          [
            135.5099336,
            34.6832188
          ],
          [
            135.5099434,
            34.6830896
          ],
          [
            135.5099585,
            34.6829758
          ],
          [
            135.5099808,
            34.6828509
          ],
          [
            135.5100101,
            34.6827265
          ],
          [
            135.510048,
            34.6826044
          ],
          [
            135.5101016,
            34.6824711
          ],
          [
            135.5101692,
            34.6823312
          ],
          [
            135.5103538,
            34.6820144
          ],
          [
            135.5104346,
            34.6818738
          ],
          [
            135.5105124,
            34.681713
          ],
          [
            135.5105835,
            34.6815495
          ],
          [
            135.510653,
            34.6813616
          ],
          [
            135.5107038,
            34.6811832
          ],
          [
            135.5107353,
            34.6810095
          ],
          [
            135.5107587,
            34.6808261
          ],
          [
            135.5107689,
            34.6806403
          ],
          [
            135.510786,
            34.6803181
          ],
          [
            135.5108223,
            34.6795878
          ],
          [
            135.5108481,
            34.6786938
          ],
          [
            135.5108639,
            34.6776794
          ],
          [
            135.510872,
            34.6773742
          ],
          [
            135.510882,
            34.6763364
          ],
          [
            135.5108536,
            34.674831
          ],
          [
            135.5108186,
            34.6739447
          ],
          [
            135.5107581,
            34.6728687
          ],
          [
            135.510541,
            34.6694345
          ],
          [
            135.510454,
            34.6678522
          ],
          [
            135.5104348,
            34.667583
          ],
          [
            135.5103389,
            34.6664524
          ],
          [
            135.5102038,
            34.6649864
          ],
          [
            135.5100786,
            34.6637899
          ],
          [
            135.5100435,
            34.6635139
          ],
          [
            135.5098701,
            34.6625448
          ],
          [
            135.509783,
            34.6620934
          ],
          [
            135.5096231,
            34.66137
          ],
          [
            135.5094627,
            34.6606149
          ],
          [
            135.5093149,
            34.6598412
          ],
          [
            135.509244,
            34.659424
          ],
          [
            135.5090484,
            34.6581559
          ],
          [
            135.5087419,
            34.6567763
          ],
          [
            135.508565,
            34.6561988
          ],
          [
            135.5085104,
            34.6560248
          ],
          [
            135.508473,
            34.6559132
          ],
          [
            135.5084302,
            34.6557972
          ],
          [
            135.5083928,
            34.6557151
          ],
          [
            135.508345,
            34.6556295
          ],
          [
            135.5082818,
            34.6555444
          ],
          [
            135.5082112,
            34.6554743
          ],
          [
            135.5081247,
            34.6554081
          ],
          [
            135.5080394,
            34.6553557
          ],
          [
            135.5079406,
            34.6553076
          ],
          [
            135.5078343,
            34.6552722
          ],
          [
            135.5077156,
            34.6552478
          ],
          [
            135.5076017,
            34.6552356
          ],
          [
            135.507481,
            34.6552326
          ],
          [
            135.5073563,
            34.6552385
          ],
          [
            135.5072284,
            34.6552487
          ],
          [
            135.5060478,
            34.6553816
          ],
          [
            135.5050227,
            34.6554938
          ],
          [
            135.5036895,
            34.6556301
          ],
          [
            135.5028552,
            34.6557228
          ],
          [
            135.5020374,
            34.6558098
          ],
          [
            135.5018203,
            34.6558388
          ],
          [
            135.5017084,
            34.6558597
          ],
          [
            135.5015963,
            34.6558867
          ],
          [
            135.501487,
            34.6559262
          ],
          [
            135.5013706,
            34.6559771
          ],
          [
            135.5012708,
            34.6560336
          ],
          [
            135.5011667,
            34.6561094
          ],
          [
            135.50108,
            34.6561923
          ],
          [
            135.5010002,
            34.6562883
          ],
          [
            135.5009292,
            34.656391
          ],
          [
            135.5008732,
            34.656504
          ],
          [
            135.5008228,
            34.6566246
          ],
          [
            135.5007889,
            34.6567364
          ],
          [
            135.5007034,
            34.6573858
          ],
          [
            135.500641,
            34.6577157
          ],
          [
            135.500543,
            34.6580324
          ],
          [
            135.5003662,
            34.6584959
          ],
          [
            135.5003474,
            34.6585843
          ],
          [
            135.5003163,
            34.6587305
          ],
          [
            135.5003109,
            34.6589533
          ],
          [
            135.5003537,
            34.6592289
          ],
          [
            135.5004838,
            34.6599341
          ],
          [
            135.5006335,
            34.6610453
          ],
          [
            135.5007024,
            34.6615834
          ],
          [
            135.5007282,
            34.6617338
          ],
          [
            135.5007779,
            34.6618919
          ],
          [
            135.500918,
            34.6624
          ],
          [
            135.5009535,
            34.6625654
          ],
          [
            135.5009743,
            34.6626929
          ],
          [
            135.5009752,
            34.6628224
          ],
          [
            135.5009542,
            34.6629621
          ],
          [
            135.5009164,
            34.6630758
          ],
          [
            135.5009104,
            34.6630866
          ],
          [
            135.5008046,
            34.6632765
          ],
          [
            135.5002147,
            34.6641531
          ],
          [
            135.4995773,
            34.6650344
          ],
          [
            135.4990704,
            34.6657217
          ],
          [
            135.4987205,
            34.6662392
          ],
          [
            135.498039,
            34.6673094
          ],
          [
            135.4977085,
            34.667842
          ],
          [
            135.4973778,
            34.6683951
          ]
        ]
      }
    }
  ]
}